ADRAS-J                 
1 58992U 24034A   24150.55756377  .00002960  00000+0  27916-3 0  9997
2 58992  98.2116 122.7387 0045722 109.4551 251.1616 14.93835775 15085
